CSS (TIANHE)            
1 48274U 21035A   23312.55467328  .00048054  00000+0  54915-3 0  9994
2 48274  41.4727 356.9683 0003331  82.7111 277.4107 15.61342266144409
